{"type": "FeatureCollection", "features": [ {"type": "Feature", "properties": {"norad_id": 30661, "name": "FENGYUN 1C DEB", "group": "fengyun-1c-debris", "lat": 64.07999101483004, "lon": 134.23560118105695, "alt_km": 710.8607655517071, "timestamp": "2025-12-05T05:43:15.387390+00:00", "meta": {"OBJECT_NAME": "FENGYUN 1C DEB", "OBJECT_ID": "1999-025APT", "EPOCH": "2025-12-04T05:45:49.116384", "MEAN_MOTION": 14.21134717, "ECCENTRICITY": 0.0144917, "INCLINATION": 99.487, "RA_OF_ASC_NODE": 153.2885, "ARG_OF_PERICENTER": 69.4681, "MEAN_ANOMALY": 292.1977, "EPHEMERIS_TYPE": 0, "CLASSIFICATION_TYPE": "U", "NORAD_CAT_ID": 30661, "ELEMENT_SET_NO": 999, "REV_AT_EPOCH": 97781, "BSTAR": 0.00021665, "MEAN_MOTION_DOT": 4.74e-06, "MEAN_MOTION_DDOT": 0}, "tle": {"line1": "1 30661U 99025APT 25338.24015181  .00000474  00000+0  21665-3 0  9991", "line2": "2 30661  99.4870 153.2885 0144917  69.4681 292.1977 14.21134717977817"}}, "geometry": {"type": "Point", "coordinates": [134.23560118105695, 64.07999101483004]}}, {"type": "Feature", "properties": {"norad_id": 30662, "name": "FENGYUN 1C DEB", "group": "fengyun-1c-debris", "lat": 78.19707409983963, "lon": -14.413177099737252, "alt_km": 830.4553337186499, "timestamp": "2025-12-05T05:43:15.387400+00:00", "meta": {"OBJECT_NAME": "FENGYUN 1C DEB", "OBJECT_ID": "1999-025APU", "EPOCH": "2025-12-03T02:48:18.846720", "MEAN_MOTION": 14.22256685, "ECCENTRICITY": 0.00325542, "INCLINATION": 99.0531, "RA_OF_ASC_NODE": 33.1374, "ARG_OF_PERICENTER": 299.1565, "MEAN_ANOMALY": 86.7895, "EPHEMERIS_TYPE": 0, "CLASSIFICATION_TYPE": "U", "NORAD_CAT_ID": 30662, "ELEMENT_SET_NO": 999, "REV_AT_EPOCH": 96502, "BSTAR": 0.0019182856, "MEAN_MOTION_DOT": 4.237e-05, "MEAN_MOTION_DDOT": 0}, "tle": {"line1": "1 30662U 99025APU 25337.11688480  .00004237  00000+0  19183-2 0  9997", "line2": "2 30662  99.0531  33.1374 0032554 299.1565  86.7895 14.22256685965029"}}, "geometry": {"type": "Point", "coordinates": [-14.413177099737252, 78.19707409983963]}}, {"type": "Feature", "properties": {"norad_id": 30663, "name": "FENGYUN 1C DEB", "group": "fengyun-1c-debris", "lat": 69.97712511652449, "lon": 103.68043726201451, "alt_km": 816.9227868707303, "timestamp": "2025-12-05T05:43:15.387410+00:00", "meta": {"OBJECT_NAME": "FENGYUN 1C DEB", "OBJECT_ID": "1999-025APV", "EPOCH": "2025-12-04T05:34:25.506624", "MEAN_MOTION": 13.23090027, "ECCENTRICITY": 0.0647475, "INCLINATION": 99.3021, "RA_OF_ASC_NODE": 256.0506, "ARG_OF_PERICENTER": 157.3048, "MEAN_ANOMALY": 205.8133, "EPHEMERIS_TYPE": 0, "CLASSIFICATION_TYPE": "U", "NORAD_CAT_ID": 30663, "ELEMENT_SET_NO": 999, "REV_AT_EPOCH": 88935, "BSTAR": 0.0026759, "MEAN_MOTION_DOT": 3.448e-05, "MEAN_MOTION_DDOT": 0}, "tle": {"line1": "1 30663U 99025APV 25338.23223966  .00003448  00000+0  26759-2 0  9996", "line2": "2 30663  99.3021 256.0506 0647475 157.3048 205.8133 13.23090027889351"}}, "geometry": {"type": "Point", "coordinates": [103.68043726201451, 69.97712511652449]}}, {"type": "Feature", "properties": {"norad_id": 30665, "name": "FENGYUN 1C DEB", "group": "fengyun-1c-debris", "lat": 69.51397902692656, "lon": -75.09680268553178, "alt_km": 888.2492172998436, "timestamp": "2025-12-05T05:43:15.387420+00:00", "meta": {"OBJECT_NAME": "FENGYUN 1C DEB", "OBJECT_ID": "1999-025APX", "EPOCH": "2025-12-03T09:53:30.923808", "MEAN_MOTION": 14.12252026, "ECCENTRICITY": 0.00678337, "INCLINATION": 99.2075, "RA_OF_ASC_NODE": 308.7594, "ARG_OF_PERICENTER": 229.226, "MEAN_ANOMALY": 283.2134, "EPHEMERIS_TYPE": 0, "CLASSIFICATION_TYPE": "U", "NORAD_CAT_ID": 30665, "ELEMENT_SET_NO": 999, "REV_AT_EPOCH": 95838, "BSTAR": 0.002235862, "MEAN_MOTION_DOT": 4.157e-05, "MEAN_MOTION_DDOT": 0}, "tle": {"line1": "1 30665U 99025APX 25337.41216347  .00004157  00000+0  22359-2 0  9992", "line2": "2 30665  99.2075 308.7594 0067833 229.2260 283.2134 14.12252026958381"}}, "geometry": {"type": "Point", "coordinates": [-75.09680268553178, 69.51397902692656]}}, {"type": "Feature", "properties": {"norad_id": 30666, "name": "FENGYUN 1C DEB", "group": "fengyun-1c-debris", "lat": 33.86085760903894, "lon": 149.0727051982117, "alt_km": 841.0334353090884, "timestamp": "2025-12-05T05:43:15.387431+00:00", "meta": {"OBJECT_NAME": "FENGYUN 1C DEB", "OBJECT_ID": "1999-025APY", "EPOCH": "2025-12-04T10:54:55.831104", "MEAN_MOTION": 14.02548328, "ECCENTRICITY": 0.0060743, "INCLINATION": 98.8224, "RA_OF_ASC_NODE": 322.3324, "ARG_OF_PERICENTER": 166.8655, "MEAN_ANOMALY": 344.8025, "EPHEMERIS_TYPE": 0, "CLASSIFICATION_TYPE": "U", "NORAD_CAT_ID": 30666, "ELEMENT_SET_NO": 999, "REV_AT_EPOCH": 95994, "BSTAR": 0.00030735, "MEAN_MOTION_DOT": 4.39e-06, "MEAN_MOTION_DDOT": 0}, "tle": {"line1": "1 30666U 99025APY 25338.45481286  .00000439  00000+0  30735-3 0  9991", "line2": "2 30666  98.8224 322.3324 0060743 166.8655 344.8025 14.02548328959941"}}, "geometry": {"type": "Point", "coordinates": [149.0727051982117, 33.86085760903894]}}, {"type": "Feature", "properties": {"norad_id": 30668, "name": "FENGYUN 1C DEB", "group": "fengyun-1c-debris", "lat": 16.338747727844087, "lon": -125.14122774762222, "alt_km": 865.3611628909266, "timestamp": "2025-12-05T05:43:15.387441+00:00", "meta": {"OBJECT_NAME": "FENGYUN 1C DEB", "OBJECT_ID": "1999-025AQA", "EPOCH": "2025-12-03T03:46:19.506144", "MEAN_MOTION": 14.12223902, "ECCENTRICITY": 0.00784298, "INCLINATION": 99.1324, "RA_OF_ASC_NODE": 50.0364, "ARG_OF_PERICENTER": 272.9786, "MEAN_ANOMALY": 116.1609, "EPHEMERIS_TYPE": 0, "CLASSIFICATION_TYPE": "U", "NORAD_CAT_ID": 30668, "ELEMENT_SET_NO": 999, "REV_AT_EPOCH": 95920, "BSTAR": 0.0023512126, "MEAN_MOTION_DOT": 4.404e-05, "MEAN_MOTION_DDOT": 0}, "tle": {"line1": "1 30668U 99025AQA 25337.15717021  .00004404  00000+0  23512-2 0  9998", "line2": "2 30668  99.1324  50.0364 0078429 272.9786 116.1609 14.12223902959207"}}, "geometry": {"type": "Point", "coordinates": [-125.14122774762222, 16.338747727844087]}}, {"type": "Feature", "properties": {"norad_id": 30669, "name": "FENGYUN 1C DEB", "group": "fengyun-1c-debris", "lat": 60.92567256529649, "lon": 112.1515038719675, "alt_km": 862.8806221581854, "timestamp": "2025-12-05T05:43:15.387451+00:00", "meta": {"OBJECT_NAME": "FENGYUN 1C DEB", "OBJECT_ID": "1999-025AQB", "EPOCH": "2025-12-04T14:34:39.638208", "MEAN_MOTION": 14.02681375, "ECCENTRICITY": 0.0117483, "INCLINATION": 98.6336, "RA_OF_ASC_NODE": 275.6952, "ARG_OF_PERICENTER": 199.6693, "MEAN_ANOMALY": 335.0632, "EPHEMERIS_TYPE": 0, "CLASSIFICATION_TYPE": "U", "NORAD_CAT_ID": 30669, "ELEMENT_SET_NO": 999, "REV_AT_EPOCH": 95339, "BSTAR": 0.0021575, "MEAN_MOTION_DOT": 3.499e-05, "MEAN_MOTION_DDOT": 0}, "tle": {"line1": "1 30669U 99025AQB 25338.60740322  .00003499  00000+0  21575-2 0  9990", "line2": "2 30669  98.6336 275.6952 0117483 199.6693 335.0632 14.02681375953392"}}, "geometry": {"type": "Point", "coordinates": [112.1515038719675, 60.92567256529649]}}, {"type": "Feature", "properties": {"norad_id": 30670, "name": "FENGYUN 1C DEB", "group": "fengyun-1c-debris", "lat": 47.97483256526992, "lon": 14.039793426145765, "alt_km": 813.6111574520437, "timestamp": "2025-12-05T05:43:15.387461+00:00", "meta": {"OBJECT_NAME": "FENGYUN 1C DEB", "OBJECT_ID": "1999-025AQC", "EPOCH": "2025-12-04T09:42:21.620160", "MEAN_MOTION": 14.15812692, "ECCENTRICITY": 0.0040013, "INCLINATION": 98.7121, "RA_OF_ASC_NODE": 23.0208, "ARG_OF_PERICENTER": 92.9152, "MEAN_ANOMALY": 27.9591, "EPHEMERIS_TYPE": 0, "CLASSIFICATION_TYPE": "U", "NORAD_CAT_ID": 30670, "ELEMENT_SET_NO": 999, "REV_AT_EPOCH": 97034, "BSTAR": 0.00018209, "MEAN_MOTION_DOT": 3.18e-06, "MEAN_MOTION_DDOT": 0}, "tle": {"line1": "1 30670U 99025AQC 25338.40441690  .00000318  00000+0  18209-3 0  9994", "line2": "2 30670  98.7121  23.0208 0040013  92.9152  27.9591 14.15812692970342"}}, "geometry": {"type": "Point", "coordinates": [14.039793426145765, 47.97483256526992]}}, {"type": "Feature", "properties": {"norad_id": 30671, "name": "FENGYUN 1C DEB", "group": "fengyun-1c-debris", "lat": -22.271991797771307, "lon": -139.90695629376964, "alt_km": 993.5522814446067, "timestamp": "2025-12-05T05:43:15.387471+00:00", "meta": {"OBJECT_NAME": "FENGYUN 1C DEB", "OBJECT_ID": "1999-025AQD", "EPOCH": "2025-12-03T17:12:35.371584", "MEAN_MOTION": 13.95413626, "ECCENTRICITY": 0.01268387, "INCLINATION": 99.2537, "RA_OF_ASC_NODE": 42.3947, "ARG_OF_PERICENTER": 58.0016, "MEAN_ANOMALY": 65.6063, "EPHEMERIS_TYPE": 0, "CLASSIFICATION_TYPE": "U", "NORAD_CAT_ID": 30671, "ELEMENT_SET_NO": 999, "REV_AT_EPOCH": 95069, "BSTAR": 0.0019093276, "MEAN_MOTION_DOT": 2.725e-05, "MEAN_MOTION_DDOT": 0}, "tle": {"line1": "1 30671U 99025AQD 25337.71707606  .00002725  00000+0  19093-2 0  9995", "line2": "2 30671  99.2537  42.3947 0126838  58.0016  65.6063 13.95413626950696"}}, "geometry": {"type": "Point", "coordinates": [-139.90695629376964, -22.271991797771307]}}, {"type": "Feature", "properties": {"norad_id": 30673, "name": "FENGYUN 1C DEB", "group": "fengyun-1c-debris", "lat": 15.197605278068982, "lon": -149.01022261107815, "alt_km": 844.5715660719061, "timestamp": "2025-12-05T05:43:15.387481+00:00", "meta": {"OBJECT_NAME": "FENGYUN 1C DEB", "OBJECT_ID": "1999-025AQF", "EPOCH": "2025-12-04T09:02:25.786176", "MEAN_MOTION": 14.03448834, "ECCENTRICITY": 0.0052362, "INCLINATION": 98.9212, "RA_OF_ASC_NODE": 27.6993, "ARG_OF_PERICENTER": 165.9281, "MEAN_ANOMALY": 327.3694, "EPHEMERIS_TYPE": 0, "CLASSIFICATION_TYPE": "U", "NORAD_CAT_ID": 30673, "ELEMENT_SET_NO": 999, "REV_AT_EPOCH": 96414, "BSTAR": 0.00049371, "MEAN_MOTION_DOT": 7.39e-06, "MEAN_MOTION_DDOT": 0}, "tle": {"line1": "1 30673U 99025AQF 25338.37668734  .00000739  00000+0  49371-3 0  9994", "line2": "2 30673  98.9212  27.6993 0052362 165.9281 327.3694 14.03448834964145"}}, "geometry": {"type": "Point", "coordinates": [-149.01022261107815, 15.197605278068982]}}]}